[{"OBJECT_NAME":"SKYKRAFT-1A","OBJECT_ID":"2023-001AX","EPOCH":"2026-03-09T17:03:19.828224","MEAN_MOTION":15.28083228,"ECCENTRICITY":0.00112767,"INCLINATION":97.3349,"RA_OF_ASC_NODE":127.629,"ARG_OF_PERICENTER":121.5092,"MEAN_ANOMALY":238.7251,"EPHEMERIS_TYPE":0,"CLASSIFICATION_TYPE":"U","NORAD_CAT_ID":55054,"ELEMENT_SET_NO":999,"REV_AT_EPOCH":17652,"BSTAR":0.0003006872,"MEAN_MOTION_DOT":8.177e-5,"MEAN_MOTION_DDOT":0},{"OBJECT_NAME":"STARLINK-34150","OBJECT_ID":"2025-101E","EPOCH":"2026-03-09T04:08:41.179776","MEAN_MOTION":15.27562634,"ECCENTRICITY":6.953e-5,"INCLINATION":43.0019,"RA_OF_ASC_NODE":1.1076,"ARG_OF_PERICENTER":271.663,"MEAN_ANOMALY":88.4142,"EPHEMERIS_TYPE":0,"CLASSIFICATION_TYPE":"U","NORAD_CAT_ID":63998,"ELEMENT_SET_NO":999,"REV_AT_EPOCH":4697,"BSTAR":0.0013070268,"MEAN_MOTION_DOT":0.0003586,"MEAN_MOTION_DDOT":0}]
